<?xml version="1.0" encoding="UTF-8"?>
<ndm xmlns:xsi="http://www.w3.org/2001/XMLSchema-instance" xsi:noNamespaceSchemaLocation="https://sanaregistry.org/r/ndmxml_unqualified/ndmxml-2.0.0-master-2.0.xsd">
<omm id="CCSDS_OMM_VERS" version="2.0">
<header><CREATION_DATE/><ORIGINATOR/></header><body><segment><metadata><OBJECT_NAME>IRIDIUM 57</OBJECT_NAME><OBJECT_ID>1998-019B</OBJECT_ID><CENTER_NAME>EARTH</CENTER_NAME><REF_FRAME>TEME</REF_FRAME><TIME_SYSTEM>UTC</TIME_SYSTEM><MEAN_ELEMENT_THEORY>SGP4</MEAN_ELEMENT_THEORY></metadata><data><meanElements><EPOCH>2024-12-14T18:22:11.537184</EPOCH><MEAN_MOTION>14.35635468</MEAN_MOTION><ECCENTRICITY>.0002016</ECCENTRICITY><INCLINATION>86.3979</INCLINATION><RA_OF_ASC_NODE>222.4575</RA_OF_ASC_NODE><ARG_OF_PERICENTER>82.6164</ARG_OF_PERICENTER><MEAN_ANOMALY>277.5262</MEAN_ANOMALY></meanElements><tleParameters><EPHEMERIS_TYPE>0</EPHEMERIS_TYPE><CLASSIFICATION_TYPE>U</CLASSIFICATION_TYPE><NORAD_CAT_ID>25273</NORAD_CAT_ID><ELEMENT_SET_NO>999</ELEMENT_SET_NO><REV_AT_EPOCH>39832</REV_AT_EPOCH><BSTAR>.23407E-3</BSTAR><MEAN_MOTION_DOT>.694E-5</MEAN_MOTION_DOT><MEAN_MOTION_DDOT>0</MEAN_MOTION_DDOT></tleParameters></data></segment></body></omm>
<omm id="CCSDS_OMM_VERS" version="2.0">
<header><CREATION_DATE/><ORIGINATOR/></header><body><segment><metadata><OBJECT_NAME>IRIDIUM 63</OBJECT_NAME><OBJECT_ID>1998-021B</OBJECT_ID><CENTER_NAME>EARTH</CENTER_NAME><REF_FRAME>TEME</REF_FRAME><TIME_SYSTEM>UTC</TIME_SYSTEM><MEAN_ELEMENT_THEORY>SGP4</MEAN_ELEMENT_THEORY></metadata><data><meanElements><EPOCH>2024-12-16T17:40:02.935776</EPOCH><MEAN_MOTION>14.36249852</MEAN_MOTION><ECCENTRICITY>.0002095</ECCENTRICITY><INCLINATION>86.4000</INCLINATION><RA_OF_ASC_NODE>158.6250</RA_OF_ASC_NODE><ARG_OF_PERICENTER>93.6053</ARG_OF_PERICENTER><MEAN_ANOMALY>266.5383</MEAN_ANOMALY></meanElements><tleParameters><EPHEMERIS_TYPE>0</EPHEMERIS_TYPE><CLASSIFICATION_TYPE>U</CLASSIFICATION_TYPE><NORAD_CAT_ID>25286</NORAD_CAT_ID><ELEMENT_SET_NO>999</ELEMENT_SET_NO><REV_AT_EPOCH>39792</REV_AT_EPOCH><BSTAR>.3239E-3</BSTAR><MEAN_MOTION_DOT>.965E-5</MEAN_MOTION_DOT><MEAN_MOTION_DDOT>0</MEAN_MOTION_DDOT></tleParameters></data></segment></body></omm>
<omm id="CCSDS_OMM_VERS" version="2.0">
<header><CREATION_DATE/><ORIGINATOR/></header><body><segment><metadata><OBJECT_NAME>IRIDIUM 69</OBJECT_NAME><OBJECT_ID>1998-026A</OBJECT_ID><CENTER_NAME>EARTH</CENTER_NAME><REF_FRAME>TEME</REF_FRAME><TIME_SYSTEM>UTC</TIME_SYSTEM><MEAN_ELEMENT_THEORY>SGP4</MEAN_ELEMENT_THEORY></metadata><data><meanElements><EPOCH>2024-12-15T23:37:47.367264</EPOCH><MEAN_MOTION>14.40590232</MEAN_MOTION><ECCENTRICITY>.0000343</ECCENTRICITY><INCLINATION>86.3998</INCLINATION><RA_OF_ASC_NODE>172.7638</RA_OF_ASC_NODE><ARG_OF_PERICENTER>269.4202</ARG_OF_PERICENTER><MEAN_ANOMALY>90.6958</MEAN_ANOMALY></meanElements><tleParameters><EPHEMERIS_TYPE>0</EPHEMERIS_TYPE><CLASSIFICATION_TYPE>U</CLASSIFICATION_TYPE><NORAD_CAT_ID>25319</NORAD_CAT_ID><ELEMENT_SET_NO>999</ELEMENT_SET_NO><REV_AT_EPOCH>39692</REV_AT_EPOCH><BSTAR>.27555E-3</BSTAR><MEAN_MOTION_DOT>.897E-5</MEAN_MOTION_DOT><MEAN_MOTION_DDOT>0</MEAN_MOTION_DDOT></tleParameters></data></segment></body></omm>
<omm id="CCSDS_OMM_VERS" version="2.0">
<header><CREATION_DATE/><ORIGINATOR/></header><body><segment><metadata><OBJECT_NAME>IRIDIUM 71</OBJECT_NAME><OBJECT_ID>1998-026B</OBJECT_ID><CENTER_NAME>EARTH</CENTER_NAME><REF_FRAME>TEME</REF_FRAME><TIME_SYSTEM>UTC</TIME_SYSTEM><MEAN_ELEMENT_THEORY>SGP4</MEAN_ELEMENT_THEORY></metadata><data><meanElements><EPOCH>2024-12-16T18:46:08.202432</EPOCH><MEAN_MOTION>14.40830759</MEAN_MOTION><ECCENTRICITY>.000208</ECCENTRICITY><INCLINATION>86.3995</INCLINATION><RA_OF_ASC_NODE>167.1577</RA_OF_ASC_NODE><ARG_OF_PERICENTER>26.0689</ARG_OF_PERICENTER><MEAN_ANOMALY>334.0615</MEAN_ANOMALY></meanElements><tleParameters><EPHEMERIS_TYPE>0</EPHEMERIS_TYPE><CLASSIFICATION_TYPE>U</CLASSIFICATION_TYPE><NORAD_CAT_ID>25320</NORAD_CAT_ID><ELEMENT_SET_NO>999</ELEMENT_SET_NO><REV_AT_EPOCH>39757</REV_AT_EPOCH><BSTAR>.28932E-3</BSTAR><MEAN_MOTION_DOT>.946E-5</MEAN_MOTION_DOT><MEAN_MOTION_DDOT>0</MEAN_MOTION_DDOT></tleParameters></data></segment></body></omm>
<omm id="CCSDS_OMM_VERS" version="2.0">
<header><CREATION_DATE/><ORIGINATOR/></header><body><segment><metadata><OBJECT_NAME>IRIDIUM 73</OBJECT_NAME><OBJECT_ID>1998-032C</OBJECT_ID><CENTER_NAME>EARTH</CENTER_NAME><REF_FRAME>TEME</REF_FRAME><TIME_SYSTEM>UTC</TIME_SYSTEM><MEAN_ELEMENT_THEORY>SGP4</MEAN_ELEMENT_THEORY></metadata><data><meanElements><EPOCH>2024-12-16T09:02:07.814112</EPOCH><MEAN_MOTION>14.51242228</MEAN_MOTION><ECCENTRICITY>.0001417</ECCENTRICITY><INCLINATION>86.4420</INCLINATION><RA_OF_ASC_NODE>124.4537</RA_OF_ASC_NODE><ARG_OF_PERICENTER>99.1775</ARG_OF_PERICENTER><MEAN_ANOMALY>260.9591</MEAN_ANOMALY></meanElements><tleParameters><EPHEMERIS_TYPE>0</EPHEMERIS_TYPE><CLASSIFICATION_TYPE>U</CLASSIFICATION_TYPE><NORAD_CAT_ID>25344</NORAD_CAT_ID><ELEMENT_SET_NO>999</ELEMENT_SET_NO><REV_AT_EPOCH>40434</REV_AT_EPOCH><BSTAR>.37008E-3</BSTAR><MEAN_MOTION_DOT>.149E-4</MEAN_MOTION_DOT><MEAN_MOTION_DDOT>0</MEAN_MOTION_DDOT></tleParameters></data></segment></body></omm>
<omm id="CCSDS_OMM_VERS" version="2.0">
<header><CREATION_DATE/><ORIGINATOR/></header><body><segment><metadata><OBJECT_NAME>IRIDIUM 82</OBJECT_NAME><OBJECT_ID>1998-051A</OBJECT_ID><CENTER_NAME>EARTH</CENTER_NAME><REF_FRAME>TEME</REF_FRAME><TIME_SYSTEM>UTC</TIME_SYSTEM><MEAN_ELEMENT_THEORY>SGP4</MEAN_ELEMENT_THEORY></metadata><data><meanElements><EPOCH>2024-12-16T08:00:35.633664</EPOCH><MEAN_MOTION>15.20373762</MEAN_MOTION><ECCENTRICITY>.0104304</ECCENTRICITY><INCLINATION>86.3732</INCLINATION><RA_OF_ASC_NODE>198.7425</RA_OF_ASC_NODE><ARG_OF_PERICENTER>266.1953</ARG_OF_PERICENTER><MEAN_ANOMALY>92.7360</MEAN_ANOMALY></meanElements><tleParameters><EPHEMERIS_TYPE>0</EPHEMERIS_TYPE><CLASSIFICATION_TYPE>U</CLASSIFICATION_TYPE><NORAD_CAT_ID>25467</NORAD_CAT_ID><ELEMENT_SET_NO>999</ELEMENT_SET_NO><REV_AT_EPOCH>39606</REV_AT_EPOCH><BSTAR>.87839E-3</BSTAR><MEAN_MOTION_DOT>.22225E-3</MEAN_MOTION_DOT><MEAN_MOTION_DDOT>0</MEAN_MOTION_DDOT></tleParameters></data></segment></body></omm>
</ndm>
