IRIDIUM 57              
1 25273U 98019B   24349.76541131  .00000694  00000+0  23407-3 0  9993
2 25273  86.3979 222.4575 0002016  82.6164 277.5262 14.35635468398327
IRIDIUM 63              
1 25286U 98021B   24351.73614509  .00000965  00000+0  32390-3 0  9992
2 25286  86.4000 158.6250 0002095  93.6053 266.5383 14.36249852397929
IRIDIUM 69              
1 25319U 98026A   24350.98457601  .00000897  00000+0  27555-3 0  9999
2 25319  86.3998 172.7638 0000343 269.4202  90.6958 14.40590232396920
IRIDIUM 71              
1 25320U 98026B   24351.78203938  .00000946  00000+0  28932-3 0  9997
2 25320  86.3995 167.1577 0002080  26.0689 334.0615 14.40830759397573
IRIDIUM 73              
1 25344U 98032C   24351.37647933  .00001490  00000+0  37008-3 0  9991
2 25344  86.4420 124.4537 0001417  99.1775 260.9591 14.51242228404349
IRIDIUM 82              
1 25467U 98051A   24351.33374576  .00022225  00000+0  87839-3 0  9990
2 25467  86.3732 198.7425 0104304 266.1953  92.7360 15.20373762396062
